[
  {
    "OBJECT_NAME": "STARLINK-4131",
    "OBJECT_ID": "22086E",
    "EPOCH": "2025-11-11T04:39:36.836640",
    "MEAN_MOTION": 15.08842493,
    "ECCENTRICITY": 0.0001402,
    "INCLINATION": 53.2185,
    "RA_OF_ASC_NODE": 16.0675,
    "ARG_OF_PERICENTER": 96.3879,
    "MEAN_ANOMALY": 263.7273,
    "EPHEMERIS_TYPE": 0,
    "CLASSIFICATION_TYPE": "U",
    "NORAD_CAT_ID": 53246,
    "ELEMENT_SET_NO": 999,
    "REV_AT_EPOCH": 18224,
    "BSTAR": 8.1417e-05,
    "MEAN_MOTION_DOT": 1.008e-05,
    "MEAN_MOTION_DDOT": 0.0,
    "TLE_LINE1": "1 53246U 22086E   25315.19417635  .00001008  00000+0  81417-4 0  9993",
    "TLE_LINE2": "2 53246  53.2185  16.0675 0001402  96.3879 263.7273 15.08842493182241",
    "COMMENT": "Grouped by shell and plane from TLE"
  },
  {
    "OBJECT_NAME": "STARLINK-4061",
    "OBJECT_ID": "22086F",
    "EPOCH": "2025-11-10T13:15:37.781568",
    "MEAN_MOTION": 15.08834484,
    "ECCENTRICITY": 0.0001403,
    "INCLINATION": 53.2179,
    "RA_OF_ASC_NODE": 14.1297,
    "ARG_OF_PERICENTER": 85.416,
    "MEAN_ANOMALY": 274.6992,
    "EPHEMERIS_TYPE": 0,
    "CLASSIFICATION_TYPE": "U",
    "NORAD_CAT_ID": 53247,
    "ELEMENT_SET_NO": 999,
    "REV_AT_EPOCH": 18332,
    "BSTAR": 0.0009870200000000001,
    "MEAN_MOTION_DOT": 0.00015453,
    "MEAN_MOTION_DDOT": 0.0,
    "TLE_LINE1": "1 53247U 22086F   25314.55252062  .00015453  00000+0  98702-3 0  9997",
    "TLE_LINE2": "2 53247  53.2179  14.1297 0001403  85.4160 274.6992 15.08834484183327",
    "COMMENT": "Grouped by shell and plane from TLE"
  },
  {
    "OBJECT_NAME": "STARLINK-4135",
    "OBJECT_ID": "22086G",
    "EPOCH": "2025-11-10T14:35:04.590528",
    "MEAN_MOTION": 15.08844941,
    "ECCENTRICITY": 0.0001414,
    "INCLINATION": 53.2194,
    "RA_OF_ASC_NODE": 13.8064,
    "ARG_OF_PERICENTER": 89.712,
    "MEAN_ANOMALY": 270.4034,
    "EPHEMERIS_TYPE": 0,
    "CLASSIFICATION_TYPE": "U",
    "NORAD_CAT_ID": 53248,
    "ELEMENT_SET_NO": 999,
    "REV_AT_EPOCH": 18333,
    "BSTAR": 0.0,
    "MEAN_MOTION_DOT": -1.099e-05,
    "MEAN_MOTION_DDOT": 0.0,
    "TLE_LINE1": "1 53248U 22086G   25314.60769202 -.00001099  00000+0 -50939-4 0  9997",
    "TLE_LINE2": "2 53248  53.2194  13.8064 0001414  89.7120 270.4034 15.08844941183339",
    "COMMENT": "Grouped by shell and plane from TLE"
  },
  {
    "OBJECT_NAME": "STARLINK-5159",
    "OBJECT_ID": "22125L",
    "EPOCH": "2025-11-11T05:16:38.691264",
    "MEAN_MOTION": 15.08838709,
    "ECCENTRICITY": 0.0001515,
    "INCLINATION": 53.2197,
    "RA_OF_ASC_NODE": 15.5567,
    "ARG_OF_PERICENTER": 97.7675,
    "MEAN_ANOMALY": 262.3489,
    "EPHEMERIS_TYPE": 0,
    "CLASSIFICATION_TYPE": "U",
    "NORAD_CAT_ID": 53974,
    "ELEMENT_SET_NO": 999,
    "REV_AT_EPOCH": 17172,
    "BSTAR": 0.00010359,
    "MEAN_MOTION_DOT": 1.361e-05,
    "MEAN_MOTION_DDOT": 0.0,
    "TLE_LINE1": "1 53974U 22125L   25315.21989226  .00001361  00000+0  10359-3 0  9996",
    "TLE_LINE2": "2 53974  53.2197  15.5567 0001515  97.7675 262.3489 15.08838709171720",
    "COMMENT": "Grouped by shell and plane from TLE"
  },
  {
    "OBJECT_NAME": "STARLINK-5134",
    "OBJECT_ID": "22125N",
    "EPOCH": "2025-11-11T04:50:14.078976",
    "MEAN_MOTION": 15.0883911,
    "ECCENTRICITY": 0.0001352,
    "INCLINATION": 53.2193,
    "RA_OF_ASC_NODE": 16.1521,
    "ARG_OF_PERICENTER": 92.5295,
    "MEAN_ANOMALY": 267.5852,
    "EPHEMERIS_TYPE": 0,
    "CLASSIFICATION_TYPE": "U",
    "NORAD_CAT_ID": 53976,
    "ELEMENT_SET_NO": 999,
    "REV_AT_EPOCH": 17171,
    "BSTAR": 1.8071e-05,
    "MEAN_MOTION_DOT": 0.0,
    "MEAN_MOTION_DDOT": 0.0,
    "TLE_LINE1": "1 53976U 22125N   25315.20155184  .00000000  00000+0  18071-4 0  9994",
    "TLE_LINE2": "2 53976  53.2193  16.1521 0001352  92.5295 267.5852 15.08839110171712",
    "COMMENT": "Grouped by shell and plane from TLE"
  },
  {
    "OBJECT_NAME": "STARLINK-5149",
    "OBJECT_ID": "22125T",
    "EPOCH": "2025-11-11T04:02:30.414912",
    "MEAN_MOTION": 15.08831495,
    "ECCENTRICITY": 0.0001112,
    "INCLINATION": 53.2176,
    "RA_OF_ASC_NODE": 15.9563,
    "ARG_OF_PERICENTER": 82.4569,
    "MEAN_ANOMALY": 277.655,
    "EPHEMERIS_TYPE": 0,
    "CLASSIFICATION_TYPE": "U",
    "NORAD_CAT_ID": 53981,
    "ELEMENT_SET_NO": 999,
    "REV_AT_EPOCH": 17171,
    "BSTAR": 1.2836e-05,
    "MEAN_MOTION_DOT": -8.4e-07,
    "MEAN_MOTION_DDOT": 0.0,
    "TLE_LINE1": "1 53981U 22125T   25315.16840758 -.00000084  00000+0  12836-4 0  9999",
    "TLE_LINE2": "2 53981  53.2176  15.9563 0001112  82.4569 277.6550 15.08831495171713",
    "COMMENT": "Grouped by shell and plane from TLE"
  },
  {
    "OBJECT_NAME": "STARLINK-5103",
    "OBJECT_ID": "22125V",
    "EPOCH": "2025-11-11T07:23:52.101024",
    "MEAN_MOTION": 15.08816019,
    "ECCENTRICITY": 0.0001416,
    "INCLINATION": 53.2185,
    "RA_OF_ASC_NODE": 15.3907,
    "ARG_OF_PERICENTER": 96.7521,
    "MEAN_ANOMALY": 263.3632,
    "EPHEMERIS_TYPE": 0,
    "CLASSIFICATION_TYPE": "U",
    "NORAD_CAT_ID": 53983,
    "ELEMENT_SET_NO": 999,
    "REV_AT_EPOCH": 17173,
    "BSTAR": 0.00043847000000000005,
    "MEAN_MOTION_DOT": 6.693e-05,
    "MEAN_MOTION_DDOT": 0.0,
    "TLE_LINE1": "1 53983U 22125V   25315.30824191  .00006693  00000+0  43847-3 0  9996",
    "TLE_LINE2": "2 53983  53.2185  15.3907 0001416  96.7521 263.3632 15.08816019171734",
    "COMMENT": "Grouped by shell and plane from TLE"
  },
  {
    "OBJECT_NAME": "STARLINK-5119",
    "OBJECT_ID": "22125Y",
    "EPOCH": "2025-11-11T03:51:52.092576",
    "MEAN_MOTION": 15.08842986,
    "ECCENTRICITY": 0.0001314,
    "INCLINATION": 53.2192,
    "RA_OF_ASC_NODE": 15.8971,
    "ARG_OF_PERICENTER": 94.2902,
    "MEAN_ANOMALY": 265.8241,
    "EPHEMERIS_TYPE": 0,
    "CLASSIFICATION_TYPE": "U",
    "NORAD_CAT_ID": 53986,
    "ELEMENT_SET_NO": 999,
    "REV_AT_EPOCH": 17170,
    "BSTAR": 3.4313e-05,
    "MEAN_MOTION_DOT": 2.58e-06,
    "MEAN_MOTION_DDOT": 0.0,
    "TLE_LINE1": "1 53986U 22125Y   25315.16101959  .00000258  00000+0  34313-4 0  9993",
    "TLE_LINE2": "2 53986  53.2192  15.8971 0001314  94.2902 265.8241 15.08842986171706",
    "COMMENT": "Grouped by shell and plane from TLE"
  },
  {
    "OBJECT_NAME": "STARLINK-5118",
    "OBJECT_ID": "22125AD",
    "EPOCH": "2025-11-11T04:34:17.560992",
    "MEAN_MOTION": 15.08866395,
    "ECCENTRICITY": 0.0001098,
    "INCLINATION": 53.2192,
    "RA_OF_ASC_NODE": 16.0124,
    "ARG_OF_PERICENTER": 97.8927,
    "MEAN_ANOMALY": 262.219,
    "EPHEMERIS_TYPE": 0,
    "CLASSIFICATION_TYPE": "U",
    "NORAD_CAT_ID": 53991,
    "ELEMENT_SET_NO": 999,
    "REV_AT_EPOCH": 17170,
    "BSTAR": 0.0,
    "MEAN_MOTION_DOT": -5.352e-05,
    "MEAN_MOTION_DDOT": 0.0,
    "TLE_LINE1": "1 53991U 22125AD  25315.19048103 -.00005352  00000+0 -31817-3 0  9990",
    "TLE_LINE2": "2 53991  53.2192  16.0124 0001098  97.8927 262.2190 15.08866395171704",
    "COMMENT": "Grouped by shell and plane from TLE"
  },
  {
    "OBJECT_NAME": "STARLINK-5130",
    "OBJECT_ID": "22125AK",
    "EPOCH": "2025-11-10T11:36:55.281888",
    "MEAN_MOTION": 15.08838502,
    "ECCENTRICITY": 0.0001319,
    "INCLINATION": 53.2194,
    "RA_OF_ASC_NODE": 19.4812,
    "ARG_OF_PERICENTER": 101.8761,
    "MEAN_ANOMALY": 258.2379,
    "EPHEMERIS_TYPE": 0,
    "CLASSIFICATION_TYPE": "U",
    "NORAD_CAT_ID": 53997,
    "ELEMENT_SET_NO": 999,
    "REV_AT_EPOCH": 17160,
    "BSTAR": 7.128600000000001e-05,
    "MEAN_MOTION_DOT": 8.47e-06,
    "MEAN_MOTION_DDOT": 0.0,
    "TLE_LINE1": "1 53997U 22125AK  25314.48397317  .00000847  00000+0  71286-4 0  9998",
    "TLE_LINE2": "2 53997  53.2194  19.4812 0001319 101.8761 258.2379 15.08838502171603",
    "COMMENT": "Grouped by shell and plane from TLE"
  },
  {
    "OBJECT_NAME": "STARLINK-5088",
    "OBJECT_ID": "22125AN",
    "EPOCH": "2025-11-11T03:25:28.188768",
    "MEAN_MOTION": 15.08829519,
    "ECCENTRICITY": 0.0001389,
    "INCLINATION": 53.2194,
    "RA_OF_ASC_NODE": 16.4858,
    "ARG_OF_PERICENTER": 102.406,
    "MEAN_ANOMALY": 257.7088,
    "EPHEMERIS_TYPE": 0,
    "CLASSIFICATION_TYPE": "U",
    "NORAD_CAT_ID": 54000,
    "ELEMENT_SET_NO": 999,
    "REV_AT_EPOCH": 17170,
    "BSTAR": 0.0,
    "MEAN_MOTION_DOT": -3.6e-06,
    "MEAN_MOTION_DDOT": 0.0,
    "TLE_LINE1": "1 54000U 22125AN  25315.14268737 -.00000360  00000+0 -45106-5 0  9996",
    "TLE_LINE2": "2 54000  53.2194  16.4858 0001389 102.4060 257.7088 15.08829519171702",
    "COMMENT": "Grouped by shell and plane from TLE"
  },
  {
    "OBJECT_NAME": "STARLINK-5109",
    "OBJECT_ID": "22125AQ",
    "EPOCH": "2025-11-11T03:57:10.658016",
    "MEAN_MOTION": 15.08848736,
    "ECCENTRICITY": 0.0001502,
    "INCLINATION": 53.2172,
    "RA_OF_ASC_NODE": 15.9372,
    "ARG_OF_PERICENTER": 81.5951,
    "MEAN_ANOMALY": 278.5211,
    "EPHEMERIS_TYPE": 0,
    "CLASSIFICATION_TYPE": "U",
    "NORAD_CAT_ID": 54002,
    "ELEMENT_SET_NO": 999,
    "REV_AT_EPOCH": 17171,
    "BSTAR": 0.00025788,
    "MEAN_MOTION_DOT": 3.819e-05,
    "MEAN_MOTION_DDOT": 0.0,
    "TLE_LINE1": "1 54002U 22125AQ  25315.16470669  .00003819  00000+0  25788-3 0  9991",
    "TLE_LINE2": "2 54002  53.2172  15.9372 0001502  81.5951 278.5211 15.08848736171710",
    "COMMENT": "Grouped by shell and plane from TLE"
  },
  {
    "OBJECT_NAME": "STARLINK-5145",
    "OBJECT_ID": "22125AW",
    "EPOCH": "2025-11-11T05:21:56.924928",
    "MEAN_MOTION": 15.08841778,
    "ECCENTRICITY": 0.0001567,
    "INCLINATION": 53.2182,
    "RA_OF_ASC_NODE": 15.5807,
    "ARG_OF_PERICENTER": 93.7055,
    "MEAN_ANOMALY": 266.4117,
    "EPHEMERIS_TYPE": 0,
    "CLASSIFICATION_TYPE": "U",
    "NORAD_CAT_ID": 54008,
    "ELEMENT_SET_NO": 999,
    "REV_AT_EPOCH": 17172,
    "BSTAR": 0.00017582,
    "MEAN_MOTION_DOT": 2.511e-05,
    "MEAN_MOTION_DDOT": 0.0,
    "TLE_LINE1": "1 54008U 22125AW  25315.22357552  .00002511  00000+0  17582-3 0  9990",
    "TLE_LINE2": "2 54008  53.2182  15.5807 0001567  93.7055 266.4117 15.08841778171728",
    "COMMENT": "Grouped by shell and plane from TLE"
  }
]